FLOCK 4H-10             
1 66713U 25276AZ  26068.76176108  .00008509  00000+0  41463-3 0  9995
2 66713  97.4259 143.9692 0004304   8.4136 351.7170 15.18574346 15327
FLOCK 4H-13             
1 66716U 25276BC  26068.76587403  .00007871  00000+0  37410-3 0  9990
2 66716  97.4290 144.1574 0000071  66.7650 293.3593 15.19476350 15330
